0 FENGYUN 1C DEB
1 30195U 99025VC  13282.04211954  .00031363  00000-0  69301-2 0  6809
2 30195 102.0633 217.3200 0074509 330.3980 085.4169 14.55465805353570
0 FENGYUN 1C DEB
1 30195U 99025VC  13282.79797774  .00022952  00000-0  50794-2 0  6811
2 30195 102.0628 218.4085 0074393 328.4250 085.8606 14.55505704353681
0 FENGYUN 1C DEB
1 30195U 99025VC  13284.11623720  .00025661  00000-0  56691-2 0  6821
2 30195 102.0626 220.3064 0074098 324.9273 153.3927 14.55560801353873
0 FENGYUN 1C DEB
1 30195U 99025VC  13285.06661000  .00021525  00000-0  47580-2 0  6832
2 30195 102.0626 221.6748 0073939 322.4398 093.3617 14.55601394354019
0 FENGYUN 1C DEB
1 30195U 99025VC  13286.78452434  .00021877  00000-0  48298-2 0  6849
2 30195 102.0628 224.1484 0073607 317.9169 095.6306 14.55668172354267
0 FENGYUN 1C DEB
1 30195U 99025VC  13288.02305907  .00037986  00000-0  83434-2 0  6850
2 30195 102.0632 225.9319 0073320 314.5503 106.2235 14.55729819354441
0 FENGYUN 1C DEB
1 30195U 99025VC  13289.05303360  .00031090  00000-0  68318-2 0  6860
2 30195 102.0635 227.4150 0073028 311.8600 103.9774 14.55791119354597
0 FENGYUN 1C DEB
1 30195U 99025VC  13289.80886140  .00031858  00000-0  69954-2 0  6875
2 30195 102.0639 228.5036 0072962 309.8168 105.2125 14.55819296354703
0 FENGYUN 1C DEB
1 30195U 99025VC  13291.04614731  .00026082  00000-0  57286-2 0  6888
2 30195 102.0641 230.2858 0072651 306.4597 109.9551 14.55888685354883
0 FENGYUN 1C DEB
1 30195U 99025VC  13292.07898388  .00023951  00000-0  52594-2 0  6894
2 30195 102.0643 231.7735 0072439 303.6570 123.3729 14.55936279355037
0 FENGYUN 1C DEB
1 30195U 99025VC  13293.39500219  .00026840  00000-0  58823-2 0  6906
2 30195 102.0646 233.6693 0072157 300.0965 181.2862 14.56001807355223
0 FENGYUN 1C DEB
1 30195U 99025VC  13294.35849927  .00028571  00000-0  62551-2 0  6912
2 30195 102.0644 235.0575 0071896 297.5152 191.6251 14.56040645355368
0 FENGYUN 1C DEB
1 30195U 99025VC  13295.79119130  .00029686  00000-0  64890-2 0  6924
2 30195 102.0645 237.1221 0071693 293.6133 141.6766 14.56108774355578
